OBJECT_NAME,OBJECT_ID,EPOCH,MEAN_MOTION,ECCENTRICITY,INCLINATION,RA_OF_ASC_NODE,ARG_OF_PERICENTER,MEAN_ANOMALY,EPHEMERIS_TYPE,CLASSIFICATION_TYPE,NORAD_CAT_ID,ELEMENT_SET_NO,REV_AT_EPOCH,BSTAR,MEAN_MOTION_DOT,MEAN_MOTION_DDOT
NIMIQ 4,2008-044A,2026-06-14T19:33:31.578912,1.00272273,.0002197,0.0014,359.2319,66.2757,48.9894,0,U,33373,999,6496,0,-.215E-5,0
GALAXY 19 (G-19),2008-045A,2026-06-14T19:29:16.985760,1.00270104,.0002428,0.0199,9.0086,79.8629,9.5610,0,U,33376,999,6488,0,0,0
ASTRA 1M,2008-057A,2026-06-14T19:39:38.466144,1.00270531,.0004625,0.2905,82.4198,23.4568,111.5084,0,U,33436,999,4571,0,.126E-5,0
EUTELSAT HOTBIRD 13C,2008-065A,2026-06-14T19:42:45.694080,1.00271665,.0003257,2.9442,79.2180,3.7207,65.5741,0,U,33459,999,4732,0,-.279E-5,0
EXPRESS-AM44,2009-007A,2026-06-14T19:53:56.100192,1.00271015,.0003868,3.4563,78.4220,358.8726,113.3067,0,U,33595,999,5226,0,-.86E-6,0
NSS-9,2009-008A,2026-06-14T19:06:34.164000,1.00272957,.0001843,1.2557,82.6801,349.0260,301.1069,0,U,33749,999,6349,0,.77E-6,0
TELSTAR 11N,2009-009A,2026-06-14T19:46:22.845792,1.00271056,.0002145,0.0124,43.9478,33.3686,84.8356,0,U,34111,999,4622,0,-.245E-5,0
WGS F2 (USA 204),2009-017A,2026-06-14T18:30:47.130048,1.00269218,.0000553,0.0171,346.5486,266.5986,345.1252,0,U,34713,999,4559,0,.74E-6,0
SES-7 (PROTOSTAR 2),2009-027A,2026-06-14T20:27:53.735328,1.00270650,.0000528,0.0570,76.1332,249.0700,353.1815,0,U,34941,999,6260,0,-.339E-5,0
MEASAT-3A,2009-032A,2026-06-14T18:59:57.296832,1.00271539,.0002818,0.0241,337.6135,100.0646,270.4027,0,U,35362,999,800,0,-.104E-5,0
GOES 14,2009-033A,2026-06-14T20:37:52.776768,1.00111502,.0001706,1.6841,83.0685,10.6310,262.0958,0,U,35491,999,656,0,-.278E-5,0
FM-5,2009-034A,2026-06-14T19:32:31.676064,1.00269724,.0001019,0.0205,292.4193,18.8658,158.8044,0,U,35493,999,4662,0,-.194E-5,0
TERRESTAR-1,2009-035A,2026-06-14T18:28:15.439296,1.00270526,.0002755,5.1805,48.8006,26.3463,353.9720,0,U,35496,999,6211,0,-.54E-6,0
ASIASAT 5,2009-042A,2026-06-14T03:31:38.688384,1.00270112,.00017067,0.0188,301.2110,109.6790,4.9571,0,U,35696,999,6167,0,-.298E-5,0
JCSAT-12 (JCSAT-RA),2009-044A,2026-06-14T20:34:45.577344,1.00272141,.0000483,0.0127,316.5002,1.0443,26.3378,0,U,35755,999,6158,0,-.322E-5,0
OPTUS D3,2009-044B,2026-06-14T12:23:38.797728,1.00269475,.00027243,0.8697,269.1725,177.3991,158.2931,0,U,35756,999,6153,0,-.138E-5,0
NIMIQ 5,2009-050A,2026-06-14T19:36:16.316064,1.00270767,.0002594,0.0160,295.9778,143.5163,44.9953,0,U,35873,999,6132,0,-.251E-5,0
AMAZONAS 2,2009-054A,2026-06-14T19:36:31.291776,1.00269320,.0003142,1.8095,83.0797,356.7859,45.3765,0,U,35942,999,6116,0,-.254E-5,0
COMSATBW-1,2009-054B,2026-06-14T20:20:04.287840,1.00272620,.0002741,0.0760,77.9393,12.0579,181.1807,0,U,35943,999,6128,0,.3E-6,0
NSS-12,2009-058A,2026-06-14T18:30:39.641760,1.00272237,.0004442,0.0839,68.8646,341.8148,187.0500,0,U,36032,999,6089,0,.77E-6,0
THOR 6,2009-058B,2026-06-14T19:21:38.675232,1.00270103,.0001511,0.0157,28.9782,49.0628,114.6334,0,U,36033,999,6098,0,0,0
INTELSAT 14 (IS-14),2009-064A,2026-06-14T19:44:15.550080,1.00270311,.0002141,0.0187,46.5036,29.3107,78.3778,0,U,36097,999,6058,0,-.268E-5,0
EUTELSAT 36B,2009-065A,2026-06-14T20:11:28.370976,1.00272813,.0005775,0.4856,81.0799,1.0710,174.3457,0,U,36101,999,6068,0,.117E-5,0
INTELSAT 15 (IS-15),2009-067A,2026-06-14T20:21:16.869024,1.00270759,.0002016,0.0207,52.3845,35.1403,206.0861,0,U,36106,999,4120,0,-.179E-5,0
WGS F3 (USA 211),2009-068A,2026-06-14T17:37:18.070752,1.00270983,.0000226,0.3280,85.8179,270.4570,41.0905,0,U,36108,999,4656,0,.7E-6,0
DIRECTV 12,2009-075A,2026-06-14T16:02:25.676736,1.00269778,.0000387,0.0086,104.6882,268.4542,27.7068,0,U,36131,999,4652,0,-.97E-6,0
BEIDOU-2 G1,2010-001A,2026-06-14T15:55:10.699392,1.00271311,.0002326,4.2864,60.4117,298.0990,283.7221,0,U,36287,999,6014,0,-.277E-5,0
SDO,2010-005A,2026-06-14T10:29:29.087808,1.00269990,.00017144,34.6460,86.3840,49.5303,182.1298,0,U,36395,999,6003,0,-.94E-6,0
INTELSAT 16 (IS-16),2010-006A,2026-06-14T19:35:16.412352,1.00269632,.0001911,0.0214,301.2579,164.4131,15.0573,0,U,36397,999,5963,0,-.239E-5,0
EWS-G2 (GOES 15),2010-008A,2026-06-14T18:32:31.964352,1.00275745,.0005377,1.2710,82.9013,42.1192,119.8710,0,U,36411,999,5961,0,.23E-6,0
ECHOSTAR 14,2010-010A,2026-06-14T17:40:25.271904,1.00272181,.0002295,0.0404,83.2989,19.0875,306.8673,0,U,36499,999,4652,0,.6E-7,0
SES-1,2010-016A,2026-06-14T16:02:55.629024,1.00271136,.0002476,0.0162,322.3362,120.6380,319.7250,0,U,36516,999,5900,0,-.108E-5,0
