NIMIQ 4                 
1 33373U 08044A   26165.81494883 -.00000215  00000+0  00000+0 0  9997
2 33373   0.0014 359.2319 0002197  66.2757  48.9894  1.00272273 64961
GALAXY 19 (G-19)        
1 33376U 08045A   26165.81200215  .00000000  00000+0  00000+0 0  9996
2 33376   0.0199   9.0086 0002428  79.8629   9.5610  1.00270104 64885
ASTRA 1M                
1 33436U 08057A   26165.81919521  .00000126  00000+0  00000+0 0  9992
2 33436   0.2905  82.4198 0004625  23.4568 111.5084  1.00270531 45710
EUTELSAT HOTBIRD 13C    
1 33459U 08065A   26165.82136220 -.00000279  00000+0  00000+0 0  9994
2 33459   2.9442  79.2180 0003257   3.7207  65.5741  1.00271665 47322
EXPRESS-AM44            
1 33595U 09007A   26165.82912153 -.00000086  00000+0  00000+0 0  9995
2 33595   3.4563  78.4220 0003868 358.8726 113.3067  1.00271015 52268
NSS-9                   
1 33749U 09008A   26165.79622875  .00000077  00000+0  00000+0 0  9991
2 33749   1.2557  82.6801 0001843 349.0260 301.1069  1.00272957 63498
TELSTAR 11N             
1 34111U 09009A   26165.82387553 -.00000245  00000+0  00000+0 0  9999
2 34111   0.0124  43.9478 0002145  33.3686  84.8356  1.00271056 46225
WGS F2 (USA 204)        
1 34713U 09017A   26165.77137882  .00000074  00000+0  00000+0 0  9997
2 34713   0.0171 346.5486 0000553 266.5986 345.1252  1.00269218 45594
SES-7 (PROTOSTAR 2)     
1 34941U 09027A   26165.85270527 -.00000339  00000+0  00000+0 0  9999
2 34941   0.0570  76.1332 0000528 249.0700 353.1815  1.00270650 62605
MEASAT-3A               
1 35362U 09032A   26165.79163538 -.00000104  00000+0  00000+0 0  9999
2 35362   0.0241 337.6135 0002818 100.0646 270.4027  1.00271539  8000
GOES 14                 
1 35491U 09033A   26165.85963862 -.00000278  00000+0  00000+0 0  9990
2 35491   1.6841  83.0685 0001706  10.6310 262.0958  1.00111502  6569
FM-5                    
1 35493U 09034A   26165.81425551 -.00000194  00000+0  00000+0 0  9994
2 35493   0.0205 292.4193 0001019  18.8658 158.8044  1.00269724 46629
TERRESTAR-1             
1 35496U 09035A   26165.76962314 -.00000054  00000+0  00000+0 0  9990
2 35496   5.1805  48.8006 0002755  26.3463 353.9720  1.00270526 62119
ASIASAT 5               
1 35696U 09042A   26165.14697556 -.00000298  00000+0  00000+0 0  9995
2 35696   0.0188 301.2110 0001706 109.6790   4.9571  1.00270112 61672
JCSAT-12 (JCSAT-RA)     
1 35755U 09044A   26165.85747196 -.00000322  00000+0  00000+0 0  9995
2 35755   0.0127 316.5002 0000483   1.0443  26.3378  1.00272141 61588
OPTUS D3                
1 35756U 09044B   26165.51642127 -.00000138  00000+0  00000+0 0  9992
2 35756   0.8697 269.1725 0002724 177.3991 158.2931  1.00269475 61530
NIMIQ 5                 
1 35873U 09050A   26165.81685551 -.00000251  00000+0  00000+0 0  9996
2 35873   0.0160 295.9778 0002594 143.5163  44.9953  1.00270767 61321
AMAZONAS 2              
1 35942U 09054A   26165.81702884 -.00000254  00000+0  00000+0 0  9999
2 35942   1.8095  83.0797 0003142 356.7859  45.3765  1.00269320 61162
COMSATBW-1              
1 35943U 09054B   26165.84727185  .00000030  00000+0  00000+0 0  9995
2 35943   0.0760  77.9393 0002741  12.0579 181.1807  1.00272620 61288
NSS-12                  
1 36032U 09058A   26165.77129215  .00000077  00000+0  00000+0 0  9992
2 36032   0.0839  68.8646 0004442 341.8148 187.0500  1.00272237 60895
THOR 6                  
1 36033U 09058B   26165.80669763  .00000000  00000+0  00000+0 0  9990
2 36033   0.0157  28.9782 0001511  49.0628 114.6334  1.00270103 60982
INTELSAT 14 (IS-14)     
1 36097U 09064A   26165.82240220 -.00000268  00000+0  00000+0 0  9999
2 36097   0.0187  46.5036 0002141  29.3107  78.3778  1.00270311 60581
EUTELSAT 36B            
1 36101U 09065A   26165.84130059  .00000117  00000+0  00000+0 0  9998
2 36101   0.4856  81.0799 0005775   1.0710 174.3457  1.00272813 60688
INTELSAT 15 (IS-15)     
1 36106U 09067A   26165.84811191 -.00000179  00000+0  00000+0 0  9997
2 36106   0.0207  52.3845 0002016  35.1403 206.0861  1.00270759 41200
WGS F3 (USA 211)        
1 36108U 09068A   26165.73423693  .00000070  00000+0  00000+0 0  9993
2 36108   0.3280  85.8179 0000226 270.4570  41.0905  1.00270983 46566
DIRECTV 12              
1 36131U 09075A   26165.66835274 -.00000097  00000+0  00000+0 0  9991
2 36131   0.0086 104.6882 0000387 268.4542  27.7068  1.00269778 46525
BEIDOU-2 G1             
1 36287U 10001A   26165.66331828 -.00000277  00000+0  00000+0 0  9990
2 36287   4.2864  60.4117 0002326 298.0990 283.7221  1.00271311 60143
SDO                     
1 36395U 10005A   26165.43714222 -.00000094  00000+0  00000+0 0  9999
2 36395  34.6460  86.3840 0001714  49.5303 182.1298  1.00269990 60033
INTELSAT 16 (IS-16)     
1 36397U 10006A   26165.81616218 -.00000239  00000+0  00000+0 0  9991
2 36397   0.0214 301.2579 0001911 164.4131  15.0573  1.00269632 59639
EWS-G2 (GOES 15)        
1 36411U 10008A   26165.77259218  .00000023  00000+0  00000+0 0  9998
2 36411   1.2710  82.9013 0005377  42.1192 119.8710  1.00275745 59611
ECHOSTAR 14             
1 36499U 10010A   26165.73640361  .00000006  00000+0  00000+0 0  9997
2 36499   0.0404  83.2989 0002295  19.0875 306.8673  1.00272181 46520
SES-1                   
1 36516U 10016A   26165.66869941 -.00000108  00000+0  00000+0 0  9996
2 36516   0.0162 322.3362 0002476 120.6380 319.7250  1.00271136 59004
